{"type": "FeatureCollection", "name": "county_choropleth", "features": [{"type": "Feature", "properties": {"county": "Gwinnett", "state": "Georgia", "veh_ytd_2026": 2125, "wupa_total_avg_imp": 973, "zip_count": 18}, "geometry": {"type": "Polygon", "coordinates": [[[-84.109894, 34.098423], [-84.107143, 34.10003], [-84.105403, 34.102223], [-84.10261, 34.103788], [-84.101343, 34.106305], [-84.094763, 34.131708], [-84.074624, 34.163687], [-84.062841, 34.167873], [-83.86803, 34.098281], [-83.817682, 34.127493], [-83.869115, 34.004316], [-83.799104, 33.929844], [-83.984555, 33.784332], [-84.023713, 33.752808], [-84.172139, 33.857516], [-84.179418, 33.864403], [-84.187005, 33.865515], [-84.203519, 33.873003], [-84.20472, 33.877003], [-84.21663, 33.884976], [-84.23222, 33.902002], [-84.250413, 33.910812], [-84.256022, 33.914401], [-84.259011, 33.91882], [-84.265337, 33.932576], [-84.272216, 33.944853], [-84.266306, 33.947577], [-84.271922, 33.9559], [-84.275722, 33.954201], [-84.276822, 33.9577], [-84.097692, 34.050654], [-84.117801, 34.065315], [-84.109894, 34.098423]]]}}, {"type": "Feature", "properties": {"county": "DeKalb", "state": "Georgia", "veh_ytd_2026": 1788, "wupa_total_avg_imp": 4543, "zip_count": 47}, "geometry": {"type": "Polygon", "coordinates": [[[-84.254149, 33.647045], [-84.350224, 33.647908], [-84.348138, 33.857692], [-84.348525, 33.861903], [-84.348125, 33.864903], [-84.348425, 33.881902], [-84.347823, 33.938017], [-84.276822, 33.9577], [-84.275722, 33.954201], [-84.271922, 33.9559], [-84.266306, 33.947577], [-84.272216, 33.944853], [-84.265337, 33.932576], [-84.259011, 33.91882], [-84.256022, 33.914401], [-84.250413, 33.910812], [-84.23222, 33.902002], [-84.21663, 33.884976], [-84.20472, 33.877003], [-84.203519, 33.873003], [-84.187005, 33.865515], [-84.179418, 33.864403], [-84.172139, 33.857516], [-84.023713, 33.752808], [-84.056614, 33.726608], [-84.104334, 33.636025], [-84.184143, 33.646157], [-84.223952, 33.646572], [-84.224235, 33.630657], [-84.245453, 33.63073], [-84.254149, 33.647045]]]}}, {"type": "Feature", "properties": {"county": "Cobb", "state": "Georgia", "veh_ytd_2026": 1555, "wupa_total_avg_imp": 1591, "zip_count": 16}, "geometry": {"type": "Polygon", "coordinates": [[[-84.724435, 33.881859], [-84.737836, 34.079399], [-84.418927, 34.073298], [-84.383027, 33.9638], [-84.442708, 33.901543], [-84.480134, 33.817319], [-84.578132, 33.743507], [-84.619892, 33.805024], [-84.724139, 33.80617], [-84.723969, 33.815306], [-84.725181, 33.816995], [-84.724435, 33.881859]]]}}, {"type": "Feature", "properties": {"county": "Forsyth", "state": "Georgia", "veh_ytd_2026": 1267, "wupa_total_avg_imp": 139, "zip_count": 3}, "geometry": {"type": "Polygon", "coordinates": [[[-84.258075, 34.335156], [-83.957077, 34.334011], [-83.927284, 34.279399], [-83.989059, 34.195732], [-84.074624, 34.163687], [-84.094763, 34.131708], [-84.101343, 34.106305], [-84.10261, 34.103788], [-84.105403, 34.102223], [-84.107143, 34.10003], [-84.109894, 34.098423], [-84.117801, 34.065315], [-84.097692, 34.050654], [-84.200373, 34.090118], [-84.258934, 34.109539], [-84.258075, 34.335156]]]}}, {"type": "Feature", "properties": {"county": "Cherokee", "state": "Georgia", "veh_ytd_2026": 1067, "wupa_total_avg_imp": 1112, "zip_count": 6}, "geometry": {"type": "Polygon", "coordinates": [[[-84.257586, 34.380992], [-84.258743, 34.185909], [-84.328263, 34.186144], [-84.418927, 34.073298], [-84.659234, 34.077999], [-84.653232, 34.41259], [-84.58263, 34.381492], [-84.257586, 34.380992]]]}}, {"type": "Feature", "properties": {"county": "Hall", "state": "Georgia", "veh_ytd_2026": 924, "wupa_total_avg_imp": 262, "zip_count": 10}, "geometry": {"type": "Polygon", "coordinates": [[[-84.062841, 34.167873], [-83.989059, 34.195732], [-83.927284, 34.279399], [-83.957077, 34.334011], [-83.980649, 34.418389], [-83.843405, 34.505494], [-83.666413, 34.503598], [-83.615251, 34.431748], [-83.669473, 34.366689], [-83.620115, 34.295276], [-83.817682, 34.127493], [-83.86803, 34.098281], [-84.062841, 34.167873]]]}}, {"type": "Feature", "properties": {"county": "Douglas", "state": "Georgia", "veh_ytd_2026": 756, "wupa_total_avg_imp": 212, "zip_count": 7}, "geometry": {"type": "Polygon", "coordinates": [[[-84.769935, 33.784704], [-84.741348, 33.788568], [-84.725477, 33.788579], [-84.724122, 33.791439], [-84.724139, 33.80617], [-84.619892, 33.805024], [-84.578132, 33.743507], [-84.586826, 33.729114], [-84.594332, 33.729007], [-84.601732, 33.724408], [-84.608032, 33.712908], [-84.621232, 33.704508], [-84.632131, 33.700312], [-84.630117, 33.693116], [-84.752735, 33.63021], [-84.763097, 33.614211], [-84.775591, 33.609662], [-84.805655, 33.58642], [-84.808934, 33.574085], [-84.905788, 33.573378], [-84.902546, 33.661066], [-84.901688, 33.780703], [-84.879151, 33.774758], [-84.832708, 33.776019], [-84.832705, 33.778522], [-84.795109, 33.779809], [-84.791993, 33.781162], [-84.769935, 33.784704]]]}}, {"type": "Feature", "properties": {"county": "Fulton", "state": "Georgia", "veh_ytd_2026": 756, "wupa_total_avg_imp": 612, "zip_count": 8}, "geometry": {"type": "Polygon", "coordinates": [[[-84.752735, 33.63021], [-84.630117, 33.693116], [-84.632131, 33.700312], [-84.621232, 33.704508], [-84.608032, 33.712908], [-84.601732, 33.724408], [-84.594332, 33.729007], [-84.586826, 33.729114], [-84.578132, 33.743507], [-84.480134, 33.817319], [-84.442708, 33.901543], [-84.383027, 33.9638], [-84.418927, 34.073298], [-84.328263, 34.186144], [-84.258743, 34.185909], [-84.258934, 34.109539], [-84.200373, 34.090118], [-84.097692, 34.050654], [-84.276822, 33.9577], [-84.347823, 33.938017], [-84.348425, 33.881902], [-84.348125, 33.864903], [-84.348525, 33.861903], [-84.348138, 33.857692], [-84.350224, 33.647908], [-84.457726, 33.64887], [-84.458514, 33.608625], [-84.458399, 33.572743], [-84.458927, 33.565911], [-84.458665, 33.550933], [-84.60954, 33.502511], [-84.850713, 33.511457], [-84.808934, 33.574085], [-84.805655, 33.58642], [-84.775591, 33.609662], [-84.763097, 33.614211], [-84.752735, 33.63021]]]}}, {"type": "Feature", "properties": {"county": "Walton", "state": "Georgia", "veh_ytd_2026": 600, "wupa_total_avg_imp": 134, "zip_count": 5}, "geometry": {"type": "Polygon", "coordinates": [[[-83.77735, 33.658301], [-83.982033, 33.786054], [-83.799104, 33.929844], [-83.763835, 33.896682], [-83.647031, 33.906198], [-83.505928, 33.81776], [-83.680896, 33.596919], [-83.77735, 33.658301]]]}}, {"type": "Feature", "properties": {"county": "Henry", "state": "Georgia", "veh_ytd_2026": 585, "wupa_total_avg_imp": 1336, "zip_count": 5}, "geometry": {"type": "Polygon", "coordinates": [[[-84.283518, 33.502514], [-84.281273, 33.647411], [-84.254149, 33.647045], [-84.245453, 33.63073], [-84.224235, 33.630657], [-84.223952, 33.646572], [-84.184143, 33.646157], [-84.181584, 33.629174], [-84.17213, 33.621919], [-84.136289, 33.57233], [-84.044493, 33.525776], [-83.923913, 33.444194], [-84.044594, 33.333656], [-84.042663, 33.333501], [-84.102582, 33.298191], [-84.150581, 33.335639], [-84.3544, 33.352514], [-84.353584, 33.436165], [-84.283518, 33.502514]]]}}, {"type": "Feature", "properties": {"county": "Paulding", "state": "Georgia", "veh_ytd_2026": 571, "wupa_total_avg_imp": 65, "zip_count": 3}, "geometry": {"type": "Polygon", "coordinates": [[[-85.05031, 33.904488], [-84.978683, 33.951393], [-84.922742, 34.082497], [-84.737836, 34.079399], [-84.724435, 33.881859], [-84.725181, 33.816995], [-84.723969, 33.815306], [-84.724122, 33.791439], [-84.725477, 33.788579], [-84.741348, 33.788568], [-84.769935, 33.784704], [-84.791993, 33.781162], [-84.795109, 33.779809], [-84.832705, 33.778522], [-84.832708, 33.776019], [-84.879151, 33.774758], [-84.901688, 33.780703], [-84.918629, 33.786328], [-85.037926, 33.811942], [-85.036684, 33.904327], [-85.05031, 33.904488]]]}}, {"type": "Feature", "properties": {"county": "Jackson", "state": "Georgia", "veh_ytd_2026": 571, "wupa_total_avg_imp": 173, "zip_count": 9}, "geometry": {"type": "Polygon", "coordinates": [[[-83.360028, 34.040572], [-83.537385, 33.965912], [-83.563215, 34.031757], [-83.767532, 34.066448], [-83.817682, 34.127493], [-83.620115, 34.295276], [-83.480361, 34.262038], [-83.402428, 34.197499], [-83.360028, 34.040572]]]}}, {"type": "Feature", "properties": {"county": "Coweta", "state": "Georgia", "veh_ytd_2026": 523, "wupa_total_avg_imp": 356, "zip_count": 6}, "geometry": {"type": "Polygon", "coordinates": [[[-84.939015, 33.224693], [-85.015358, 33.425506], [-84.850713, 33.511457], [-84.60954, 33.502511], [-84.62722, 33.440078], [-84.497527, 33.257422], [-84.508926, 33.245222], [-84.50029, 33.233444], [-84.502352, 33.221055], [-84.85236, 33.22359], [-84.862359, 33.191173], [-84.939015, 33.224693]]]}}, {"type": "Feature", "properties": {"county": "Dawson", "state": "Georgia", "veh_ytd_2026": 447, "wupa_total_avg_imp": 98, "zip_count": 1}, "geometry": {"type": "Polygon", "coordinates": [[[-84.258075, 34.335156], [-84.256867, 34.467327], [-84.319679, 34.467857], [-84.345553, 34.562735], [-84.255112, 34.568333], [-84.196754, 34.617924], [-84.189026, 34.608109], [-84.188557, 34.602692], [-84.19104, 34.539181], [-84.102037, 34.464544], [-83.980649, 34.418389], [-83.957077, 34.334011], [-84.258075, 34.335156]]]}}, {"type": "Feature", "properties": {"county": "Carroll", "state": "Georgia", "veh_ytd_2026": 422, "wupa_total_avg_imp": 58, "zip_count": 4}, "geometry": {"type": "Polygon", "coordinates": [[[-85.337974, 33.653111], [-85.050889, 33.714632], [-85.037926, 33.811942], [-84.918629, 33.786328], [-84.901688, 33.780703], [-84.902546, 33.661066], [-84.905788, 33.573378], [-84.808934, 33.574085], [-84.850713, 33.511457], [-85.015358, 33.425506], [-85.293902, 33.428079], [-85.337974, 33.653111]]]}}, {"type": "Feature", "properties": {"county": "Newton", "state": "Georgia", "veh_ytd_2026": 409, "wupa_total_avg_imp": 108, "zip_count": 5}, "geometry": {"type": "Polygon", "coordinates": [[[-83.682196, 33.52622], [-83.674644, 33.487225], [-83.824922, 33.437263], [-83.863058, 33.368278], [-83.923913, 33.444194], [-84.044493, 33.525776], [-83.972655, 33.605482], [-83.914823, 33.744203], [-83.77735, 33.658301], [-83.680896, 33.596919], [-83.687386, 33.588559], [-83.687085, 33.582375], [-83.681443, 33.577913], [-83.677669, 33.571176], [-83.682196, 33.52622]]]}}, {"type": "Feature", "properties": {"county": "Bartow", "state": "Georgia", "veh_ytd_2026": 396, "wupa_total_avg_imp": 360, "zip_count": 7}, "geometry": {"type": "Polygon", "coordinates": [[[-85.005775, 34.392446], [-84.862863, 34.396601], [-84.653232, 34.41259], [-84.659234, 34.077999], [-84.922742, 34.082497], [-85.046871, 34.096412], [-85.005775, 34.392446]]]}}, {"type": "Feature", "properties": {"county": "Clayton", "state": "Georgia", "veh_ytd_2026": 384, "wupa_total_avg_imp": 678, "zip_count": 9}, "geometry": {"type": "Polygon", "coordinates": [[[-84.388118, 33.352465], [-84.381759, 33.463414], [-84.458665, 33.550933], [-84.458927, 33.565911], [-84.458399, 33.572743], [-84.458514, 33.608625], [-84.457726, 33.64887], [-84.282619, 33.647009], [-84.281273, 33.647411], [-84.283518, 33.502514], [-84.353584, 33.436165], [-84.3544, 33.352514], [-84.388118, 33.352465]]]}}, {"type": "Feature", "properties": {"county": "Haralson", "state": "Georgia", "veh_ytd_2026": 343, "wupa_total_avg_imp": 43, "zip_count": 4}, "geometry": {"type": "Polygon", "coordinates": [[[-85.386693, 33.901697], [-85.036684, 33.904327], [-85.037926, 33.811942], [-85.050889, 33.714632], [-85.337974, 33.653111], [-85.386693, 33.901697]]]}}, {"type": "Feature", "properties": {"county": "Fayette", "state": "Georgia", "veh_ytd_2026": 281, "wupa_total_avg_imp": 150, "zip_count": 5}, "geometry": {"type": "Polygon", "coordinates": [[[-84.497527, 33.257422], [-84.62722, 33.440078], [-84.60954, 33.502511], [-84.458665, 33.550933], [-84.381759, 33.463414], [-84.388118, 33.352465], [-84.432907, 33.2565], [-84.497527, 33.257422]]]}}, {"type": "Feature", "properties": {"county": "Pickens", "state": "Georgia", "veh_ytd_2026": 260, "wupa_total_avg_imp": 174, "zip_count": 2}, "geometry": {"type": "Polygon", "coordinates": [[[-84.654366, 34.548946], [-84.345553, 34.562735], [-84.319679, 34.467857], [-84.256867, 34.467327], [-84.257586, 34.380992], [-84.58263, 34.381492], [-84.653232, 34.41259], [-84.654366, 34.548946]]]}}, {"type": "Feature", "properties": {"county": "Polk", "state": "Georgia", "veh_ytd_2026": 256, "wupa_total_avg_imp": 60, "zip_count": 4}, "geometry": {"type": "Polygon", "coordinates": [[[-84.922742, 34.082497], [-84.978683, 33.951393], [-85.05031, 33.904488], [-85.386693, 33.901697], [-85.421731, 34.080821], [-85.257624, 34.100668], [-85.046871, 34.096412], [-84.922742, 34.082497]]]}}, {"type": "Feature", "properties": {"county": "Barrow", "state": "Georgia", "veh_ytd_2026": 248, "wupa_total_avg_imp": 117, "zip_count": 3}, "geometry": {"type": "Polygon", "coordinates": [[[-83.647031, 33.906198], [-83.763835, 33.896682], [-83.799104, 33.929844], [-83.869115, 34.004316], [-83.817682, 34.127493], [-83.767532, 34.066448], [-83.563215, 34.031757], [-83.537385, 33.965912], [-83.647031, 33.906198]]]}}, {"type": "Feature", "properties": {"county": "Troup", "state": "Georgia", "veh_ytd_2026": 223, "wupa_total_avg_imp": 98, "zip_count": 4}, "geometry": {"type": "Polygon", "coordinates": [[[-85.236509, 33.129562], [-84.939015, 33.224693], [-84.862359, 33.191173], [-84.861768, 32.872495], [-85.184131, 32.870525], [-85.221868, 33.055538], [-85.236509, 33.129562]]]}}, {"type": "Feature", "properties": {"county": "Gilmer", "state": "Georgia", "veh_ytd_2026": 220, "wupa_total_avg_imp": 8, "zip_count": 3}, "geometry": {"type": "Polygon", "coordinates": [[[-84.654366, 34.548946], [-84.654523, 34.583187], [-84.657098, 34.728905], [-84.582306, 34.825141], [-84.618637, 34.855398], [-84.429093, 34.855036], [-84.314653, 34.807328], [-84.196754, 34.617924], [-84.255112, 34.568333], [-84.345553, 34.562735], [-84.654366, 34.548946]]]}}, {"type": "Feature", "properties": {"county": "Lumpkin", "state": "Georgia", "veh_ytd_2026": 205, "wupa_total_avg_imp": 21, "zip_count": 1}, "geometry": {"type": "Polygon", "coordinates": [[[-83.843405, 34.505494], [-83.980649, 34.418389], [-84.102037, 34.464544], [-84.19104, 34.539181], [-84.188557, 34.602692], [-84.158035, 34.648243], [-84.03651, 34.641934], [-83.939007, 34.740859], [-83.856506, 34.722191], [-83.877276, 34.629597], [-83.843405, 34.505494]]]}}, {"type": "Feature", "properties": {"county": "Floyd", "state": "Georgia", "veh_ytd_2026": 201, "wupa_total_avg_imp": 260, "zip_count": 6}, "geometry": {"type": "Polygon", "coordinates": [[[-85.069159, 34.587184], [-85.086761, 34.401264], [-85.005775, 34.392446], [-85.046871, 34.096412], [-85.257624, 34.100668], [-85.421731, 34.080821], [-85.455371, 34.252854], [-85.462304, 34.286365], [-85.387351, 34.286097], [-85.334881, 34.369748], [-85.180548, 34.435996], [-85.107748, 34.587483], [-85.069159, 34.587184]]]}}, {"type": "Feature", "properties": {"county": "Fannin", "state": "Georgia", "veh_ytd_2026": 174, "wupa_total_avg_imp": 26, "zip_count": 5}, "geometry": {"type": "Polygon", "coordinates": [[[-84.621483, 34.988329], [-84.394903, 34.98803], [-84.321869, 34.988408], [-84.129455, 34.987504], [-84.178672, 34.946497], [-84.107422, 34.886896], [-84.093193, 34.801411], [-84.158035, 34.648243], [-84.188557, 34.602692], [-84.189026, 34.608109], [-84.196754, 34.617924], [-84.314653, 34.807328], [-84.429093, 34.855036], [-84.618637, 34.855398], [-84.621483, 34.988329]]]}}, {"type": "Feature", "properties": {"county": "Rockdale", "state": "Georgia", "veh_ytd_2026": 169, "wupa_total_avg_imp": 435, "zip_count": 3}, "geometry": {"type": "Polygon", "coordinates": [[[-84.056614, 33.726608], [-83.982033, 33.786054], [-83.914823, 33.744203], [-83.972655, 33.605482], [-84.044493, 33.525776], [-84.136289, 33.57233], [-84.17213, 33.621919], [-84.181584, 33.629174], [-84.184143, 33.646157], [-84.104334, 33.636025], [-84.056614, 33.726608]]]}}, {"type": "Feature", "properties": {"county": "Union", "state": "Georgia", "veh_ytd_2026": 161, "wupa_total_avg_imp": 20, "zip_count": 2}, "geometry": {"type": "Polygon", "coordinates": [[[-84.129455, 34.987504], [-83.936413, 34.987485], [-83.915104, 34.926887], [-83.819099, 34.91369], [-83.780401, 34.792893], [-83.856506, 34.722191], [-83.939007, 34.740859], [-84.03651, 34.641934], [-84.158035, 34.648243], [-84.093193, 34.801411], [-84.107422, 34.886896], [-84.178672, 34.946497], [-84.129455, 34.987504]]]}}, {"type": "Feature", "properties": {"county": "Spalding", "state": "Georgia", "veh_ytd_2026": 154, "wupa_total_avg_imp": 198, "zip_count": 2}, "geometry": {"type": "Polygon", "coordinates": [[[-84.502352, 33.221055], [-84.50029, 33.233444], [-84.508926, 33.245222], [-84.497527, 33.257422], [-84.432907, 33.2565], [-84.388118, 33.352465], [-84.3544, 33.352514], [-84.150581, 33.335639], [-84.102582, 33.298191], [-84.123767, 33.202824], [-84.248185, 33.189019], [-84.451336, 33.208889], [-84.496783, 33.183866], [-84.492889, 33.200006], [-84.502352, 33.221055]]]}}, {"type": "Feature", "properties": {"county": "Habersham", "state": "Georgia", "veh_ytd_2026": 145, "wupa_total_avg_imp": 35, "zip_count": 6}, "geometry": {"type": "Polygon", "coordinates": [[[-83.352485, 34.715993], [-83.350976, 34.713243], [-83.351293, 34.701703], [-83.337867, 34.687681], [-83.45977, 34.481142], [-83.537538, 34.491725], [-83.615251, 34.431748], [-83.666413, 34.503598], [-83.61554, 34.552864], [-83.662819, 34.659801], [-83.623296, 34.732194], [-83.681596, 34.800593], [-83.666855, 34.806528], [-83.657921, 34.813682], [-83.652194, 34.822993], [-83.586897, 34.819991], [-83.548988, 34.749451], [-83.352485, 34.715993]]]}}, {"type": "Feature", "properties": {"county": "Gordon", "state": "Georgia", "veh_ytd_2026": 142, "wupa_total_avg_imp": 121, "zip_count": 6}, "geometry": {"type": "Polygon", "coordinates": [[[-84.654523, 34.583187], [-84.653232, 34.41259], [-84.862863, 34.396601], [-85.005775, 34.392446], [-85.086761, 34.401264], [-85.069159, 34.587184], [-85.060499, 34.587184], [-85.06038, 34.62245], [-85.050446, 34.622482], [-84.913456, 34.634128], [-84.863793, 34.608597], [-84.716498, 34.6229], [-84.654523, 34.583187]]]}}, {"type": "Feature", "properties": {"county": "Clarke", "state": "Georgia", "veh_ytd_2026": 117, "wupa_total_avg_imp": 164, "zip_count": 4}, "geometry": {"type": "Polygon", "coordinates": [[[-83.360028, 34.040572], [-83.258413, 33.999098], [-83.24086, 33.90443], [-83.275933, 33.847977], [-83.537385, 33.965912], [-83.360028, 34.040572]]]}}, {"type": "Feature", "properties": {"county": "White", "state": "Georgia", "veh_ytd_2026": 114, "wupa_total_avg_imp": 85, "zip_count": 3}, "geometry": {"type": "Polygon", "coordinates": [[[-83.856506, 34.722191], [-83.780401, 34.792893], [-83.743107, 34.801191], [-83.735981, 34.800071], [-83.726874, 34.797732], [-83.72203, 34.797271], [-83.721035, 34.79611], [-83.714186, 34.793112], [-83.711803, 34.79052], [-83.707757, 34.79171], [-83.704146, 34.790982], [-83.701813, 34.792488], [-83.69599, 34.79352], [-83.693155, 34.797322], [-83.685685, 34.800997], [-83.681596, 34.800593], [-83.623296, 34.732194], [-83.662819, 34.659801], [-83.61554, 34.552864], [-83.666413, 34.503598], [-83.843405, 34.505494], [-83.877276, 34.629597], [-83.856506, 34.722191]]]}}, {"type": "Feature", "properties": {"county": "Butts", "state": "Georgia", "veh_ytd_2026": 113, "wupa_total_avg_imp": 37, "zip_count": 3}, "geometry": {"type": "Polygon", "coordinates": [[[-83.863058, 33.368278], [-83.814103, 33.242134], [-83.822261, 33.180238], [-84.041498, 33.202629], [-84.123767, 33.202824], [-84.102582, 33.298191], [-84.042663, 33.333501], [-84.044594, 33.333656], [-83.923913, 33.444194], [-83.863058, 33.368278]]]}}, {"type": "Feature", "properties": {"county": "Madison", "state": "Georgia", "veh_ytd_2026": 107, "wupa_total_avg_imp": 26, "zip_count": 5}, "geometry": {"type": "Polygon", "coordinates": [[[-83.258413, 33.999098], [-83.360028, 34.040572], [-83.402428, 34.197499], [-83.400125, 34.200525], [-83.372429, 34.205933], [-83.355269, 34.22373], [-83.297317, 34.264587], [-83.172745, 34.238522], [-83.11336, 34.27353], [-83.115646, 34.262111], [-83.078004, 34.223606], [-83.102074, 34.173794], [-82.976294, 34.043219], [-83.049347, 34.016071], [-83.123878, 34.047558], [-83.258413, 33.999098]]]}}, {"type": "Feature", "properties": {"county": "Oconee", "state": "Georgia", "veh_ytd_2026": 92, "wupa_total_avg_imp": 33, "zip_count": 3}, "geometry": {"type": "Polygon", "coordinates": [[[-83.505928, 33.81776], [-83.647031, 33.906198], [-83.537385, 33.965912], [-83.275933, 33.847977], [-83.28034, 33.761774], [-83.406189, 33.698307], [-83.505928, 33.81776]]]}}, {"type": "Feature", "properties": {"county": "Randolph", "state": "Alabama", "veh_ytd_2026": 87, "wupa_total_avg_imp": 25, "zip_count": 4}, "geometry": {"type": "Polygon", "coordinates": [[[-85.643482, 33.495885], [-85.304439, 33.482884], [-85.232378, 33.108077], [-85.593177, 33.10734], [-85.653654, 33.106634], [-85.643482, 33.495885]]]}}, {"type": "Feature", "properties": {"county": "Cleburne", "state": "Alabama", "veh_ytd_2026": 85, "wupa_total_avg_imp": 7, "zip_count": 2}, "geometry": {"type": "Polygon", "coordinates": [[[-85.398837, 33.964129], [-85.314091, 33.530218], [-85.304439, 33.482884], [-85.643482, 33.495885], [-85.765427, 33.498593], [-85.782735, 33.469349], [-85.887782, 33.469427], [-85.85189, 33.498742], [-85.796852, 33.541849], [-85.796054, 33.55622], [-85.638579, 33.648413], [-85.638049, 33.773339], [-85.532482, 33.889152], [-85.530094, 33.941423], [-85.398837, 33.964129]]]}}, {"type": "Feature", "properties": {"county": "Morgan", "state": "Georgia", "veh_ytd_2026": 72, "wupa_total_avg_imp": 49, "zip_count": 3}, "geometry": {"type": "Polygon", "coordinates": [[[-83.279931, 33.483438], [-83.533736, 33.434472], [-83.586817, 33.465577], [-83.682196, 33.52622], [-83.677669, 33.571176], [-83.681443, 33.577913], [-83.687085, 33.582375], [-83.687386, 33.588559], [-83.505928, 33.81776], [-83.269213, 33.533226], [-83.279931, 33.483438]]]}}, {"type": "Feature", "properties": {"county": "Rabun", "state": "Georgia", "veh_ytd_2026": 68, "wupa_total_avg_imp": 12, "zip_count": 5}, "geometry": {"type": "Polygon", "coordinates": [[[-83.108535, 35.000771], [-83.143261, 34.924756], [-83.242962, 34.877749], [-83.267293, 34.832748], [-83.283151, 34.821328], [-83.32406, 34.788691], [-83.339129, 34.741266], [-83.352422, 34.716111], [-83.548988, 34.749451], [-83.586897, 34.819991], [-83.652194, 34.822993], [-83.656792, 34.878492], [-83.549381, 34.992492], [-83.108535, 35.000771]]]}}, {"type": "Feature", "properties": {"county": "Meriwether", "state": "Georgia", "veh_ytd_2026": 62, "wupa_total_avg_imp": 39, "zip_count": 6}, "geometry": {"type": "Polygon", "coordinates": [[[-84.862359, 33.191173], [-84.85236, 33.22359], [-84.502352, 33.221055], [-84.492889, 33.200006], [-84.496783, 33.183866], [-84.52702, 32.970548], [-84.506888, 32.881788], [-84.570669, 32.845179], [-84.700538, 32.84464], [-84.861768, 32.872495], [-84.862359, 33.191173]]]}}, {"type": "Feature", "properties": {"county": "Pike", "state": "Georgia", "veh_ytd_2026": 62, "wupa_total_avg_imp": 16, "zip_count": 5}, "geometry": {"type": "Polygon", "coordinates": [[[-84.248185, 33.189019], [-84.27014, 32.991011], [-84.489708, 32.993729], [-84.52702, 32.970548], [-84.496783, 33.183866], [-84.451336, 33.208889], [-84.248185, 33.189019]]]}}, {"type": "Feature", "properties": {"county": "Greene", "state": "Georgia", "veh_ytd_2026": 61, "wupa_total_avg_imp": 25, "zip_count": 2}, "geometry": {"type": "Polygon", "coordinates": [[[-83.164207, 33.35503], [-83.279931, 33.483438], [-83.269213, 33.533226], [-83.406189, 33.698307], [-83.28034, 33.761774], [-83.118729, 33.698818], [-82.995602, 33.693583], [-82.951142, 33.658032], [-83.014038, 33.580383], [-83.012853, 33.469178], [-83.164207, 33.35503]]]}}, {"type": "Feature", "properties": {"county": "Towns", "state": "Georgia", "veh_ytd_2026": 57, "wupa_total_avg_imp": 12, "zip_count": 2}, "geometry": {"type": "Polygon", "coordinates": [[[-83.780401, 34.792893], [-83.819099, 34.91369], [-83.915104, 34.926887], [-83.936413, 34.987485], [-83.673621, 34.987111], [-83.620185, 34.992091], [-83.549381, 34.992492], [-83.656792, 34.878492], [-83.652194, 34.822993], [-83.657921, 34.813682], [-83.666855, 34.806528], [-83.681596, 34.800593], [-83.685685, 34.800997], [-83.693155, 34.797322], [-83.69599, 34.79352], [-83.701813, 34.792488], [-83.704146, 34.790982], [-83.707757, 34.79171], [-83.711803, 34.79052], [-83.714186, 34.793112], [-83.721035, 34.79611], [-83.72203, 34.797271], [-83.726874, 34.797732], [-83.735981, 34.800071], [-83.743107, 34.801191], [-83.780401, 34.792893]]]}}, {"type": "Feature", "properties": {"county": "Putnam", "state": "Georgia", "veh_ytd_2026": 55, "wupa_total_avg_imp": 32, "zip_count": 1}, "geometry": {"type": "Polygon", "coordinates": [[[-83.545876, 33.171944], [-83.537811, 33.393803], [-83.533736, 33.434472], [-83.279931, 33.483438], [-83.164207, 33.35503], [-83.145774, 33.312084], [-83.253461, 33.25929], [-83.274108, 33.187238], [-83.42909, 33.185352], [-83.545876, 33.171944]]]}}, {"type": "Feature", "properties": {"county": "Jasper", "state": "Georgia", "veh_ytd_2026": 49, "wupa_total_avg_imp": 32, "zip_count": 2}, "geometry": {"type": "Polygon", "coordinates": [[[-83.816048, 33.131816], [-83.817268, 33.14154], [-83.814056, 33.14846], [-83.822929, 33.157856], [-83.824585, 33.17564], [-83.822261, 33.180238], [-83.814103, 33.242134], [-83.863058, 33.368278], [-83.824922, 33.437263], [-83.674644, 33.487225], [-83.682196, 33.52622], [-83.586817, 33.465577], [-83.533736, 33.434472], [-83.537811, 33.393803], [-83.545876, 33.171944], [-83.816048, 33.131816]]]}}, {"type": "Feature", "properties": {"county": "Heard", "state": "Georgia", "veh_ytd_2026": 45, "wupa_total_avg_imp": 7, "zip_count": 1}, "geometry": {"type": "Polygon", "coordinates": [[[-85.293902, 33.428079], [-85.015358, 33.425506], [-84.939015, 33.224693], [-85.236509, 33.129562], [-85.293902, 33.428079]]]}}, {"type": "Feature", "properties": {"county": "Lamar", "state": "Georgia", "veh_ytd_2026": 32, "wupa_total_avg_imp": 45, "zip_count": 2}, "geometry": {"type": "Polygon", "coordinates": [[[-84.27014, 32.991011], [-84.248185, 33.189019], [-84.123767, 33.202824], [-84.041498, 33.202629], [-84.044113, 32.947874], [-84.12334, 32.932184], [-84.122361, 32.989576], [-84.27014, 32.991011]]]}}, {"type": "Feature", "properties": {"county": "Banks", "state": "Georgia", "veh_ytd_2026": 28, "wupa_total_avg_imp": 2, "zip_count": 1}, "geometry": {"type": "Polygon", "coordinates": [[[-83.355269, 34.22373], [-83.372429, 34.205933], [-83.400125, 34.200525], [-83.402428, 34.197499], [-83.480361, 34.262038], [-83.620115, 34.295276], [-83.669473, 34.366689], [-83.615251, 34.431748], [-83.537538, 34.491725], [-83.45977, 34.481142], [-83.413586, 34.468014], [-83.398396, 34.460883], [-83.393915, 34.324801], [-83.355269, 34.22373]]]}}, {"type": "Feature", "properties": {"county": "Upson", "state": "Georgia", "veh_ytd_2026": 28, "wupa_total_avg_imp": 65, "zip_count": 2}, "geometry": {"type": "Polygon", "coordinates": [[[-84.202628, 32.690018], [-84.286246, 32.747626], [-84.391017, 32.786956], [-84.506888, 32.881788], [-84.52702, 32.970548], [-84.489708, 32.993729], [-84.122361, 32.989576], [-84.124275, 32.849562], [-84.202628, 32.690018]]]}}, {"type": "Feature", "properties": {"county": "Clay", "state": "North Carolina", "veh_ytd_2026": 23, "wupa_total_avg_imp": 5, "zip_count": 2}, "geometry": {"type": "Polygon", "coordinates": [[[-83.483064, 34.993737], [-83.549381, 34.992492], [-83.620185, 34.992091], [-83.673621, 34.987111], [-84.005457, 34.98744], [-83.857142, 35.137071], [-83.738106, 35.155911], [-83.659765, 35.160243], [-83.483064, 34.993737]]]}}, {"type": "Feature", "properties": {"county": "Chattooga", "state": "Georgia", "veh_ytd_2026": 20, "wupa_total_avg_imp": 3, "zip_count": 2}, "geometry": {"type": "Polygon", "coordinates": [[[-85.513699, 34.524133], [-85.527127, 34.588684], [-85.107748, 34.587483], [-85.180548, 34.435996], [-85.334881, 34.369748], [-85.387351, 34.286097], [-85.462304, 34.286365], [-85.502316, 34.473954], [-85.513699, 34.524133]]]}}, {"type": "Feature", "properties": {"county": "Oglethorpe", "state": "Georgia", "veh_ytd_2026": 20, "wupa_total_avg_imp": 7, "zip_count": 3}, "geometry": {"type": "Polygon", "coordinates": [[[-82.779506, 33.971124], [-82.874587, 33.921767], [-82.987286, 33.78071], [-82.949046, 33.733333], [-82.98888, 33.706315], [-82.995602, 33.693583], [-83.118729, 33.698818], [-83.28034, 33.761774], [-83.275933, 33.847977], [-83.24086, 33.90443], [-83.258413, 33.999098], [-83.123878, 34.047558], [-83.049347, 34.016071], [-82.976294, 34.043219], [-82.779506, 33.971124]]]}}, {"type": "Feature", "properties": {"county": "Talbot", "state": "Georgia", "veh_ytd_2026": 5, "wupa_total_avg_imp": 15, "zip_count": 1}, "geometry": {"type": "Polygon", "coordinates": [[[-84.444353, 32.562083], [-84.637323, 32.534855], [-84.648977, 32.534956], [-84.658017, 32.528759], [-84.661721, 32.529148], [-84.678157, 32.518915], [-84.686265, 32.519624], [-84.69451, 32.518732], [-84.694603, 32.583945], [-84.700538, 32.84464], [-84.570669, 32.845179], [-84.506888, 32.881788], [-84.391017, 32.786956], [-84.286246, 32.747626], [-84.33794, 32.720647], [-84.408866, 32.561923], [-84.444353, 32.562083]]]}}, {"type": "Feature", "properties": {"county": "Clay", "state": "Alabama", "veh_ytd_2026": 4, "wupa_total_avg_imp": 1, "zip_count": 1}, "geometry": {"type": "Polygon", "coordinates": [[[-85.85189, 33.498742], [-85.887782, 33.469427], [-85.782735, 33.469349], [-85.765427, 33.498593], [-85.643482, 33.495885], [-85.653654, 33.106634], [-85.974715, 33.105286], [-86.00917, 33.09026], [-86.17437, 33.104394], [-86.17283, 33.195681], [-86.120567, 33.194511], [-86.118198, 33.29632], [-85.980293, 33.29419], [-85.976525, 33.38187], [-85.923762, 33.396206], [-85.904909, 33.498655], [-85.85189, 33.498742]]]}}, {"type": "Feature", "properties": {"county": "Baldwin", "state": "Georgia", "veh_ytd_2026": 2, "wupa_total_avg_imp": 2, "zip_count": 1}, "geometry": {"type": "Polygon", "coordinates": [[[-83.159585, 33.002803], [-83.357685, 32.926141], [-83.380383, 32.998077], [-83.414997, 33.112833], [-83.42909, 33.185352], [-83.274108, 33.187238], [-83.097507, 33.15141], [-83.100834, 33.049849], [-83.052197, 33.080682], [-83.073648, 32.946562], [-83.159585, 33.002803]]]}}, {"type": "Feature", "properties": {"county": "Monroe", "state": "Georgia", "veh_ytd_2026": 1, "wupa_total_avg_imp": 1, "zip_count": 1}, "geometry": {"type": "Polygon", "coordinates": [[[-83.822261, 33.180238], [-83.824585, 33.17564], [-83.822929, 33.157856], [-83.814056, 33.14846], [-83.817268, 33.14154], [-83.816048, 33.131816], [-83.747004, 33.063373], [-83.710685, 32.952792], [-83.891922, 32.848351], [-84.124275, 32.849562], [-84.12334, 32.932184], [-84.044113, 32.947874], [-84.041498, 33.202629], [-83.822261, 33.180238]]]}}]}