{
  "type": "FeatureCollection",
  "name": "Chevrolet_Dealers_Association_Greater_Atlanta",
  "features": [
    {
      "type": "Feature",
      "properties": {
        "name": "ALM Chevrolet South",
        "address": "4200 Jonesboro Rd, Union City, GA 30291, USA",
        "veh_ytd_2026": 358,
        "veh_ytd_2025": 344,
        "radius_miles": 8,
        "place_id": "ChIJAweWAKHm9IgRu1eoTLsJc0g",
        "yoy_delta": 14
      },
      "geometry": {
        "type": "Point",
        "coordinates": [
          -84.5250995,
          33.5667996
        ]
      }
    },
    {
      "type": "Feature",
      "properties": {
        "name": "Andean Chevrolet",
        "address": "527 Atlanta Rd, Cumming, GA 30040, USA",
        "veh_ytd_2026": 1499,
        "veh_ytd_2025": 1707,
        "radius_miles": 8,
        "place_id": "ChIJzx-C9SyF9YgRpTLFiyDp0tU",
        "yoy_delta": -208
      },
      "geometry": {
        "type": "Point",
        "coordinates": [
          -84.1361423,
          34.1944249
        ]
      }
    },
    {
      "type": "Feature",
      "properties": {
        "name": "Buddy Chevrolet",
        "address": "4770 Covington Hwy, Decatur, GA 30035, USA",
        "veh_ytd_2026": 508,
        "veh_ytd_2025": 395,
        "radius_miles": 8,
        "place_id": "ChIJp_O9O8Wr9YgRBfyAJ9oCN8Y",
        "yoy_delta": 113
      },
      "geometry": {
        "type": "Point",
        "coordinates": [
          -84.216414,
          33.738591
        ]
      }
    },
    {
      "type": "Feature",
      "properties": {
        "name": "Carl Black Chevrolet Buick GMC",
        "address": "1110 Roberts Blvd, Kennesaw, GA 30144, USA",
        "radius_miles": 8,
        "place_id": "ChIJTzcMRRIV9YgR_Inwm5qHRAs",
        "veh_ytd_2026": 492,
        "veh_ytd_2025": 494,
        "yoy_delta": -2
      },
      "geometry": {
        "type": "Point",
        "coordinates": [
          -84.5817088,
          34.0027497
        ]
      }
    },
    {
      "type": "Feature",
      "properties": {
        "name": "Day's Chevrolet",
        "address": "3693 Cobb Pkwy NW, Acworth, GA 30101, USA",
        "radius_miles": 8,
        "place_id": "ChIJ0zCt01VH9YgRvFo-OGifXbQ",
        "veh_ytd_2026": 799,
        "veh_ytd_2025": 879,
        "yoy_delta": -80
      },
      "geometry": {
        "type": "Point",
        "coordinates": [
          -84.6993176,
          34.0456714
        ]
      }
    },
    {
      "type": "Feature",
      "properties": {
        "name": "Hardy Chevrolet GMC",
        "address": "1249 Charles Hardy Pkwy, Dallas, GA 30157, USA",
        "radius_miles": 8,
        "place_id": "ChIJOWk6NxU69YgRm3bWvHspUQU",
        "veh_ytd_2026": 821,
        "veh_ytd_2025": 747,
        "yoy_delta": 74
      },
      "geometry": {
        "type": "Point",
        "coordinates": [
          -84.7727375,
          33.9168054
        ]
      }
    },
    {
      "type": "Feature",
      "properties": {
        "name": "Jim Ellis Chevrolet",
        "address": "5900 Peachtree Industrial Blvd, Atlanta, GA 30341, USA",
        "radius_miles": 8,
        "place_id": "ChIJJ2K45L4J9YgR19K9iCJchJw",
        "veh_ytd_2026": 865,
        "veh_ytd_2025": 1052,
        "yoy_delta": -187
      },
      "geometry": {
        "type": "Point",
        "coordinates": [
          -84.2914516,
          33.9096579
        ]
      }
    },
    {
      "type": "Feature",
      "properties": {
        "name": "John Megel Chevrolet",
        "address": "1392 GA-400, Dawsonville, GA 30534, USA",
        "veh_ytd_2026": 1592,
        "veh_ytd_2025": 1720,
        "radius_miles": 8,
        "place_id": "ChIJ61_D0MiJ9YgRTihSm4Ir9UY",
        "yoy_delta": -128
      },
      "geometry": {
        "type": "Point",
        "coordinates": [
          -84.0509737,
          34.347054
        ]
      }
    },
    {
      "type": "Feature",
      "properties": {
        "name": "John Miles Chevrolet Buick GMC",
        "address": "950 Dogwood Dr SE, Conyers, GA 30012, USA",
        "radius_miles": 8,
        "place_id": "ChIJq3cQ_lWz9YgR3qYltp-WEQk",
        "veh_ytd_2026": 228,
        "veh_ytd_2025": 275,
        "yoy_delta": -47
      },
      "geometry": {
        "type": "Point",
        "coordinates": [
          -84.0168663,
          33.6579963
        ]
      }
    },
    {
      "type": "Feature",
      "properties": {
        "name": "John Thornton Chevrolet",
        "address": "1971 Thornton Rd, Lithia Springs, GA 30122, USA",
        "radius_miles": 8,
        "place_id": "ChIJ0yzw_Esi9YgR__qTJaA0u58",
        "veh_ytd_2026": 961,
        "veh_ytd_2025": 1185,
        "yoy_delta": -224
      },
      "geometry": {
        "type": "Point",
        "coordinates": [
          -84.6098403,
          33.7841491
        ]
      }
    },
    {
      "type": "Feature",
      "properties": {
        "name": "Liberty Chevrolet",
        "address": "105 Cooley Way, Villa Rica, GA 30180, USA",
        "radius_miles": 8,
        "place_id": "ChIJuUKD1coq9YgRvsEVoFHWNr0",
        "veh_ytd_2026": 305,
        "veh_ytd_2025": 367,
        "yoy_delta": -62
      },
      "geometry": {
        "type": "Point",
        "coordinates": [
          -84.9402125,
          33.718134
        ]
      }
    },
    {
      "type": "Feature",
      "properties": {
        "name": "Malcolm Cunningham Chevrolet North Point",
        "address": "2175 Mansell Rd, Alpharetta, GA 30009, USA",
        "radius_miles": 8,
        "place_id": "ChIJv_xTJ7V19YgR_5o72fFJe4E",
        "veh_ytd_2026": 384,
        "veh_ytd_2025": 550,
        "yoy_delta": -166
      },
      "geometry": {
        "type": "Point",
        "coordinates": [
          -84.3148961,
          34.039036
        ]
      }
    },
    {
      "type": "Feature",
      "properties": {
        "name": "Maxie Price Chevrolet",
        "address": "3600 Atlanta Hwy, Loganville, GA 30052, USA",
        "radius_miles": 8,
        "place_id": "ChIJ727x1ZTH9YgRobnz05J-64w",
        "veh_ytd_2026": 464,
        "veh_ytd_2025": 469,
        "yoy_delta": -5
      },
      "geometry": {
        "type": "Point",
        "coordinates": [
          -83.8796409,
          33.8318839
        ]
      }
    },
    {
      "type": "Feature",
      "properties": {
        "name": "Mike Bell Chevrolet",
        "address": "1200 N Park St, Carrollton, GA 30117, USA",
        "radius_miles": 8,
        "place_id": "ChIJNxZhLTEvi4gRRN-TxLXywy4",
        "veh_ytd_2026": 928,
        "veh_ytd_2025": 979,
        "yoy_delta": -51
      },
      "geometry": {
        "type": "Point",
        "coordinates": [
          -85.0808618,
          33.6019229
        ]
      }
    },
    {
      "type": "Feature",
      "properties": {
        "name": "Nash Chevrolet",
        "address": "630 Scenic Hwy S, Lawrenceville, GA 30046, USA",
        "radius_miles": 8,
        "place_id": "ChIJF_NIyLe-9YgRW9shmMy4TN4",
        "veh_ytd_2026": 623,
        "veh_ytd_2025": 777,
        "yoy_delta": -154
      },
      "geometry": {
        "type": "Point",
        "coordinates": [
          -83.9962421,
          33.9265403
        ]
      }
    },
    {
      "type": "Feature",
      "properties": {
        "name": "Rick Hendrick Chevrolet",
        "address": "3277 Satellite Blvd NW, Duluth, GA 30096, USA",
        "radius_miles": 8,
        "place_id": "ChIJpbWZcyOj9YgRM0b6aFGa1xU",
        "veh_ytd_2026": 1443,
        "veh_ytd_2025": 1365,
        "yoy_delta": 78
      },
      "geometry": {
        "type": "Point",
        "coordinates": [
          -84.1220891,
          33.9645406
        ]
      }
    },
    {
      "type": "Feature",
      "properties": {
        "name": "Southtowne Chevrolet Buick GMC",
        "address": "695 Bullsboro Dr, Newnan, GA 30265, USA",
        "radius_miles": 8,
        "place_id": "ChIJWyEMexXG9IgRLh3KjOgTNmA",
        "veh_ytd_2026": 825,
        "veh_ytd_2025": 843,
        "yoy_delta": -18
      },
      "geometry": {
        "type": "Point",
        "coordinates": [
          -84.7556711,
          33.3958068
        ]
      }
    },
    {
      "type": "Feature",
      "properties": {
        "name": "Steve Rayman Chevrolet",
        "address": "2155 Cobb Pkwy SE, Smyrna, GA 30080, USA",
        "radius_miles": 8,
        "place_id": "ChIJX9RJCAER9YgRz1ZjusEbVEE",
        "veh_ytd_2026": 415,
        "veh_ytd_2025": 421,
        "yoy_delta": -6
      },
      "geometry": {
        "type": "Point",
        "coordinates": [
          -84.4827996,
          33.8996935
        ]
      }
    },
    {
      "type": "Feature",
      "properties": {
        "name": "Terry Cullen Southlake Chevrolet",
        "address": "1250 Battle Creek Rd, Jonesboro, GA 30236, USA",
        "radius_miles": 8,
        "place_id": "ChIJWxyK2GD59IgReQxKw8ot9mU",
        "veh_ytd_2026": 337,
        "veh_ytd_2025": 333,
        "yoy_delta": 4
      },
      "geometry": {
        "type": "Point",
        "coordinates": [
          -84.3488148,
          33.5537952
        ]
      }
    }
  ]
}